BEIJING 1               
1 28890U 05043A   22305.33436426  .00000504  00000+0  11092-3 0  9996
2 28890  98.1352  65.3492 0016451 104.4246 255.8789 14.61529377907133
HJ-1A                   
1 33320U 08041A   22305.45528198  .00000502  00000+0  76122-4 0  9996
2 33320  97.6664 332.0197 0021725 142.9759 217.2969 14.77965791762625
HJ-1B                   
1 33321U 08041B   22305.47440995  .00001122  00000+0  16094-3 0  9997
2 33321  97.6823 335.8775 0034390 162.2702 197.9737 14.77980677762628
YAOGAN 4                
1 33446U 08061A   22305.38660069  .00001038  00000+0  15209-3 0  9996
2 33446  97.8283 241.4190 0017448  53.9687 306.3138 14.77546114749815
DEIMOS-1                
1 35681U 09041A   22305.29106085  .00000413  00000+0  72809-4 0  9997
2 35681  97.6979 149.2491 0002542 115.9032 244.2442 14.72154456711905
UK-DMC 2                
1 35683U 09041C   22305.44253835  .00000693  00000+0  11885-3 0  9998
2 35683  97.7085 111.2046 0001312 100.8180 259.3198 14.71564975711659
RISAT 1                 
1 38248U 12017A   22305.29397376  .00004860  00000+0  28014-3 0  9999
2 38248  97.5524 315.2205 0005191 130.2133 229.9552 15.12846982579524
DMC3-FM1                
1 40715U 15032A   22305.51095919  .00000608  00000+0  82709-4 0  9992
2 40715  97.8256 189.4932 0007468  75.3728 284.8319 14.82252802393597
DMC3-FM2                
1 40716U 15032B   22305.46665366  .00000611  00000+0  83022-4 0  9999
2 40716  97.8302 190.1619 0009416  77.4228 282.8051 14.82245774393595
DMC3-FM3                
1 40717U 15032C   22305.48718181  .00000616  00000+0  83625-4 0  9990
2 40717  97.8336 191.1553 0011293  76.4175 283.8302 14.82273329393594
